start=new Date('2022-03-02T00:00:00.000Z').valueOf();
sats=[{"MEAN_MOTION_DDOT":"0.0000000000000","TLE_LINE1":"1 47603U 21009BH  22060.54529251 -.00000199  00000-0  55292-5 0  9993","COUNTRY_CODE":"US","EPHEMERIS_TYPE":"0","PERIAPSIS":"546.107","OBJECT_ID":"2021-009BH","CLASSIFICATION_TYPE":"U","REV_AT_EPOCH":"5967","INCLINATION":"53.0557","SEMIMAJOR_AXIS":"6925.363","TIME_SYSTEM":"UTC","REF_FRAME":"TEME","PERIOD":"95.592","ECCENTRICITY":"0.00016180","NORAD_CAT_ID":"47603","EPOCH":"2022-03-01T13:05:13.272864","MEAN_MOTION_DOT":"-0.00000199","ELEMENT_SET_NO":"999","TLE_LINE2":"2 47603  53.0557 156.8574 0001618  66.6101 293.5058 15.06395444 59679","LAUNCH_DATE":"2021-02-04","RA_OF_ASC_NODE":"156.8574","MEAN_MOTION":"15.06395444","ARG_OF_PERICENTER":"66.6101","OBJECT_NAME":"STARLINK-2008","CENTER_NAME":"EARTH","MEAN_ELEMENT_THEORY":"SGP4","DECAY_DATE":null,"RCS_SIZE":"LARGE","APOAPSIS":"548.348","OBJECT_TYPE":"PAYLOAD","MEAN_ANOMALY":"293.5058","SITE":"AFETR","GP_ID":"197506040","FILE":"3337938","BSTAR":"0.00000552920000"},{"CLASSIFICATION_TYPE":"U","OBJECT_ID":"2021-009BJ","TIME_SYSTEM":"UTC","SEMIMAJOR_AXIS":"6925.340","REV_AT_EPOCH":"5950","INCLINATION":"53.0536","MEAN_MOTION_DDOT":"0.0000000000000","PERIAPSIS":"546.070","COUNTRY_CODE":"US","TLE_LINE1":"1 47604U 21009BJ  22060.54068018  .00000855  00000-0  76321-4 0  9996","EPHEMERIS_TYPE":"0","MEAN_MOTION_DOT":"0.00000855","EPOCH":"2022-03-01T12:58:34.767552","TLE_LINE2":"2 47604  53.0536 126.8831 0001640  56.7664 303.3481 15.06402665 59505","ELEMENT_SET_NO":"999","PERIOD":"95.592","ECCENTRICITY":"0.00016400","REF_FRAME":"TEME","NORAD_CAT_ID":"47604","MEAN_MOTION":"15.06402665","CENTER_NAME":"EARTH","OBJECT_NAME":"STARLINK-2021","ARG_OF_PERICENTER":"56.7664","LAUNCH_DATE":"2021-02-04","RA_OF_ASC_NODE":"126.8831","GP_ID":"197542318","MEAN_ANOMALY":"303.3481","SITE":"AFETR","OBJECT_TYPE":"PAYLOAD","BSTAR":"0.00007632100000","FILE":"3338635","MEAN_ELEMENT_THEORY":"SGP4","APOAPSIS":"548.341","DECAY_DATE":null,"RCS_SIZE":"LARGE"},{"TLE_LINE2":"2 47605  53.0484  94.4690 0001939  39.6728 320.4427 15.63960791 59943","ELEMENT_SET_NO":"999","MEAN_MOTION_DOT":"0.00041885","EPOCH":"2022-03-01T11:12:07.388352","NORAD_CAT_ID":"47605","PERIOD":"92.074","ECCENTRICITY":"0.00019390","REF_FRAME":"TEME","TIME_SYSTEM":"UTC","SEMIMAJOR_AXIS":"6754.366","REV_AT_EPOCH":"5994","INCLINATION":"53.0484","CLASSIFICATION_TYPE":"U","OBJECT_ID":"2021-009BK","PERIAPSIS":"374.921","TLE_LINE1":"1 47605U 21009BK  22060.46675218  .00041885  00000-0  43965-3 0  9999","COUNTRY_CODE":"US","EPHEMERIS_TYPE":"0","MEAN_MOTION_DDOT":"0.0000000000000","BSTAR":"0.00043965000000","FILE":"3337314","GP_ID":"197490103","MEAN_ANOMALY":"320.4427","SITE":"AFETR","OBJECT_TYPE":"PAYLOAD","APOAPSIS":"377.541","DECAY_DATE":null,"RCS_SIZE":"LARGE","MEAN_ELEMENT_THEORY":"SGP4","OBJECT_NAME":"STARLINK-2023","CENTER_NAME":"EARTH","ARG_OF_PERICENTER":"39.6728","MEAN_MOTION":"15.63960791","RA_OF_ASC_NODE":"94.4690","LAUNCH_DATE":"2021-02-04"},{"CENTER_NAME":"EARTH","OBJECT_NAME":"STARLINK-2024","ARG_OF_PERICENTER":"58.6859","MEAN_MOTION":"15.06397203","RA_OF_ASC_NODE":"126.2766","LAUNCH_DATE":"2021-02-04","BSTAR":"0.00002916400000","FILE":"3338635","GP_ID":"197541317","MEAN_ANOMALY":"301.4275","SITE":"AFETR","OBJECT_TYPE":"PAYLOAD","APOAPSIS":"548.246","RCS_SIZE":"LARGE","DECAY_DATE":null,"MEAN_ELEMENT_THEORY":"SGP4","TIME_SYSTEM":"UTC","SEMIMAJOR_AXIS":"6925.357","REV_AT_EPOCH":"5952","INCLINATION":"53.0567","CLASSIFICATION_TYPE":"U","OBJECT_ID":"2021-009BL","PERIAPSIS":"546.199","EPHEMERIS_TYPE":"0","TLE_LINE1":"1 47606U 21009BL  22060.67706430  .00000153  00000-0  29164-4 0  9993","COUNTRY_CODE":"US","MEAN_MOTION_DDOT":"0.0000000000000","TLE_LINE2":"2 47606  53.0567 126.2766 0001478  58.6859 301.4275 15.06397203 59521","ELEMENT_SET_NO":"999","MEAN_MOTION_DOT":"0.00000153","EPOCH":"2022-03-01T16:14:58.355520","NORAD_CAT_ID":"47606","PERIOD":"95.592","ECCENTRICITY":"0.00014780","REF_FRAME":"TEME"},{"NORAD_CAT_ID":"47607","REF_FRAME":"TEME","ECCENTRICITY":"0.00016060","PERIOD":"95.592","ELEMENT_SET_NO":"999","TLE_LINE2":"2 47607  53.0551 126.6639 0001606  54.3993 305.7145 15.06395865 59506","EPOCH":"2022-03-01T14:07:34.798080","MEAN_MOTION_DOT":"0.00001387","TLE_LINE1":"1 47607U 21009BM  22060.58859720  .00001387  00000-0  11202-3 0  9998","EPHEMERIS_TYPE":"0","COUNTRY_CODE":"US","PERIAPSIS":"546.114","MEAN_MOTION_DDOT":"0.0000000000000","REV_AT_EPOCH":"5950","INCLINATION":"53.0551","SEMIMAJOR_AXIS":"6925.361","TIME_SYSTEM":"UTC","OBJECT_ID":"2021-009BM","CLASSIFICATION_TYPE":"U","DECAY_DATE":null,"RCS_SIZE":"LARGE","APOAPSIS":"548.338","MEAN_ELEMENT_THEORY":"SGP4","FILE":"3338635","BSTAR":"0.00011202000000","OBJECT_TYPE":"PAYLOAD","SITE":"AFETR","MEAN_ANOMALY":"305.7145","GP_ID":"197541567","RA_OF_ASC_NODE":"126.6639","LAUNCH_DATE":"2021-02-04","ARG_OF_PERICENTER":"54.3993","OBJECT_NAME":"STARLINK-2025","CENTER_NAME":"EARTH","MEAN_MOTION":"15.06395865"},{"MEAN_ELEMENT_THEORY":"SGP4","APOAPSIS":"548.171","RCS_SIZE":"LARGE","DECAY_DATE":null,"SITE":"AFETR","MEAN_ANOMALY":"283.8799","GP_ID":"197541318","OBJECT_TYPE":"PAYLOAD","FILE":"3338635","BSTAR":"0.00006112000000","LAUNCH_DATE":"2021-02-16","RA_OF_ASC_NODE":"185.9984","MEAN_MOTION":"15.06398116","ARG_OF_PERICENTER":"76.2343","CENTER_NAME":"EARTH","OBJECT_NAME":"STARLINK-1528","PERIOD":"95.592","ECCENTRICITY":"0.00013740","REF_FRAME":"TEME","NORAD_CAT_ID":"47620","EPOCH":"2022-03-01T17:42:32.681664","MEAN_MOTION_DOT":"0.00000629","TLE_LINE2":"2 47620  53.0541 185.9984 0001374  76.2343 283.8799 15.06398116 58574","ELEMENT_SET_NO":"999","MEAN_MOTION_DDOT":"0.0000000000000","TLE_LINE1":"1 47620U 21012A   22060.73787826  .00000629  00000-0  61120-4 0  9994","COUNTRY_CODE":"US","EPHEMERIS_TYPE":"0","PERIAPSIS":"546.268","CLASSIFICATION_TYPE":"U","OBJECT_ID":"2021-012A","SEMIMAJOR_AXIS":"6925.354","TIME_SYSTEM":"UTC","REV_AT_EPOCH":"5857","INCLINATION":"53.0541"},{"TIME_SYSTEM":"UTC","SEMIMAJOR_AXIS":"6925.363","REV_AT_EPOCH":"5860","INCLINATION":"53.0552","CLASSIFICATION_TYPE":"U","OBJECT_ID":"2021-012B","PERIAPSIS":"546.203","EPHEMERIS_TYPE":"0","TLE_LINE1":"1 47621U 21012B   22060.86319957  .00001558  00000-0  12348-3 0  9994","COUNTRY_CODE":"US","MEAN_MOTION_DDOT":"0.0000000000000","TLE_LINE2":"2 47621  53.0552 185.4432 0001480  58.8363 301.2771 15.06395236 58605","ELEMENT_SET_NO":"999","MEAN_MOTION_DOT":"0.00001558","EPOCH":"2022-03-01T20:43:00.442848","NORAD_CAT_ID":"47621","PERIOD":"95.592","ECCENTRICITY":"0.00014800","REF_FRAME":"TEME","OBJECT_NAME":"STARLINK-1609","CENTER_NAME":"EARTH","ARG_OF_PERICENTER":"58.8363","MEAN_MOTION":"15.06395236","RA_OF_ASC_NODE":"185.4432","LAUNCH_DATE":"2021-02-16","BSTAR":"0.00012348000000","FILE":"3338635","GP_ID":"197541568","SITE":"AFETR","MEAN_ANOMALY":"301.2771","OBJECT_TYPE":"PAYLOAD","APOAPSIS":"548.253","DECAY_DATE":null,"RCS_SIZE":"LARGE","MEAN_ELEMENT_THEORY":"SGP4"},{"NORAD_CAT_ID":"47622","PERIOD":"95.592","ECCENTRICITY":"0.00016380","REF_FRAME":"TEME","TLE_LINE2":"2 47622  53.0543 186.0422 0001638  60.2668 299.8484 15.06398677 58573","ELEMENT_SET_NO":"999","EPOCH":"2022-03-01T17:26:37.166784","MEAN_MOTION_DOT":"0.00001578","TLE_LINE1":"1 47622U 21012C   22060.72681906  .00001578  00000-0  12485-3 0  9990","EPHEMERIS_TYPE":"0","COUNTRY_CODE":"US","PERIAPSIS":"546.083","MEAN_MOTION_DDOT":"0.0000000000000","SEMIMAJOR_AXIS":"6925.353","TIME_SYSTEM":"UTC","INCLINATION":"53.0543","REV_AT_EPOCH":"5857","CLASSIFICATION_TYPE":"U","OBJECT_ID":"2021-012C","APOAPSIS":"548.352","DECAY_DATE":null,"RCS_SIZE":"LARGE","MEAN_ELEMENT_THEORY":"SGP4","FILE":"3338635","BSTAR":"0.00012485000000","MEAN_ANOMALY":"299.8484","SITE":"AFETR","GP_ID":"197542819","OBJECT_TYPE":"PAYLOAD","RA_OF_ASC_NODE":"186.0422","LAUNCH_DATE":"2021-02-16","ARG_OF_PERICENTER":"60.2668","CENTER_NAME":"EARTH","OBJECT_NAME":"STARLINK-1645","MEAN_MOTION":"15.06398677"},{"FILE":"3338635","BSTAR":"-0.00000605700000","OBJECT_TYPE":"PAYLOAD","SITE":"AFETR","MEAN_ANOMALY":"306.1222","GP_ID":"197543070","DECAY_DATE":null,"RCS_SIZE":"LARGE","APOAPSIS":"548.507","MEAN_ELEMENT_THEORY":"SGP4","ARG_OF_PERICENTER":"53.9935","OBJECT_NAME":"STARLINK-1655","CENTER_NAME":"EARTH","MEAN_MOTION":"15.06388684","RA_OF_ASC_NODE":"121.2960","LAUNCH_DATE":"2021-02-16","ELEMENT_SET_NO":"999","TLE_LINE2":"2 47623  53.0546 121.2960 0001818  53.9935 306.1222 15.06388684 59481","EPOCH":"2022-03-01T16:07:40.640160","MEAN_MOTION_DOT":"-0.00000372","NORAD_CAT_ID":"47623","REF_FRAME":"TEME","PERIOD":"95.593","ECCENTRICITY":"0.00018180","INCLINATION":"53.0546","REV_AT_EPOCH":"5948","SEMIMAJOR_AXIS":"6925.383","TIME_SYSTEM":"UTC","OBJECT_ID":"2021-012D","CLASSIFICATION_TYPE":"U","TLE_LINE1":"1 47623U 21012D   22060.67199815 -.00000372  00000-0 -60570-5 0  9991","EPHEMERIS_TYPE":"0","COUNTRY_CODE":"US","PERIAPSIS":"545.989","MEAN_MOTION_DDOT":"0.0000000000000"},{"MEAN_ELEMENT_THEORY":"SGP4","APOAPSIS":"548.166","RCS_SIZE":"LARGE","DECAY_DATE":null,"MEAN_ANOMALY":"289.4099","SITE":"AFETR","GP_ID":"197541818","OBJECT_TYPE":"PAYLOAD","FILE":"3338635","BSTAR":"0.00002489000000","LAUNCH_DATE":"2021-02-16","RA_OF_ASC_NODE":"166.0271","MEAN_MOTION":"15.06394126","ARG_OF_PERICENTER":"70.7036","CENTER_NAME":"EARTH","OBJECT_NAME":"STARLINK-1669","ECCENTRICITY":"0.00013490","PERIOD":"95.593","REF_FRAME":"TEME","NORAD_CAT_ID":"47624","EPOCH":"2022-03-01T17:34:35.143680","MEAN_MOTION_DOT":"0.00000089","TLE_LINE2":"2 47624  53.0553 166.0271 0001349  70.7036 289.4099 15.06394126 58875","ELEMENT_SET_NO":"999","MEAN_MOTION_DDOT":"0.0000000000000","COUNTRY_CODE":"US","TLE_LINE1":"1 47624U 21012E   22060.73235120  .00000089  00000-0  24890-4 0  9996","EPHEMERIS_TYPE":"0","PERIAPSIS":"546.297","CLASSIFICATION_TYPE":"U","OBJECT_ID":"2021-012E","SEMIMAJOR_AXIS":"6925.367","TIME_SYSTEM":"UTC","INCLINATION":"53.0553","REV_AT_EPOCH":"5887"}];
